{
  "norad_id": 65953,
  "name": "KUIPER-00124",
  "history": [
    {
      "epoch": "2026-03-28T21:06:08.177184",
      "apogee_km": 629.9594447780801,
      "perigee_km": 629.047050017869,
      "latitude_deg": 43.79151062088464,
      "longitude_deg": 139.70908576017246,
      "semi_major_axis_km": 7007.640247397974,
      "eccentricity": 6.51e-05,
      "inclination_deg": 51.8982,
      "raan_deg": 270.722,
      "arg_perigee_deg": 98.9629,
      "mean_anomaly_deg": 261.1407,
      "mean_motion_rev_day": 14.79943258
    }
  ]
}